STARLINK-1263
1 25405C 20019AX  21325.11841071 -.00003350  00000-0 -22453-3 0  3251
2 25405  53.0531 342.7096 0001782  56.0155 222.8328 15.06391435    13
